CYGNUS NG-23            
1 65616U 25208A   26013.40249050  .00007693  00000+0  14621-3 0  9998
2 65616  51.6331 345.7221 0007764  13.3330 346.7863 15.49271194   220
DRAGONFLY               
1 65729U 98067XH  26013.89001100  .00284701  00000+0  96056-3 0  9990
2 65729  51.6211 329.4000 0008058 105.8186 254.3708 15.88646761 18241
1998-067XK              
1 65731U 98067XK  26013.12953435  .00109037  00000+0  76195-3 0  9996
2 65731  51.6285 337.1409 0004914  72.1641 287.9894 15.73432001 18076
RSP-03                  
1 65732U 98067XL  26013.80987964  .00177193  00000+0  92536-3 0  9991
2 65732  51.6261 331.9045 0005869  85.6790 274.4882 15.79790344 18210
GHS-01                  
1 65733U 98067XM  26013.84988292  .00771569  29141-3  13577-2 0  9996
2 65733  51.6222 327.6205 0007746 120.6014 239.5761 16.01379575 18272
YOTSUBA-KULOVER         
1 65941U 98067XN  26013.83121289  .00057550  00000+0  58202-3 0  9992
2 65941  51.6291 338.0882 0004030  99.3963 260.7488 15.64724410 14878
BOTAN                   
1 65942U 98067XP  26013.60915885  .00117370  00000+0  88977-3 0  9990
2 65942  51.6262 337.3441 0004816  97.0128 263.1418 15.71481007 14869
E-KAGAKU-1              
1 65943U 98067XQ  26013.32017021  .00064189  00000+0  64997-3 0  9990
2 65943  51.6310 340.6811 0002616  97.8936 262.2356 15.64652925 14797
HRC MONOBLOCK CAMERA    
1 66052U 98067XR  26013.32776887  .00033511  00000+0  46734-3 0  9998
2 66052  51.6305 343.7264 0001121 356.2255   3.8728 15.56581518 13752
HTV-X1                  
1 66174U 25241A   26013.40249050  .00007693  00000+0  14621-3 0  9995
2 66174  51.6331 345.7221 0007764  13.3330 346.7863 15.49271194   512
SZ-21 MODULE            
1 66515U 25246C   26013.73410762  .00022409  00000+0  22945-3 0  9995
2 66515  41.4739 180.5961 0001835 161.6783 198.4124 15.64448838  9450
SHENZHOU-22             
1 66645U 25272A   26013.85537151  .00013646  00000+0  16430-3 0  9998
2 66645  41.4652 181.5345 0011482 279.6301  80.3240 15.60488360267645
