CCSDS_OMM_VERS = 2.0
CREATION_DATE  = 
ORIGINATOR     = 

OBJECT_NAME    = CYGNUS NG-23
OBJECT_ID      = 2025-208A
CENTER_NAME    = EARTH
REF_FRAME      = TEME
TIME_SYSTEM    = UTC
MEAN_ELEMENT_THEORY = SGP/SGP4

EPOCH          = 2026-01-13T09:39:35.179200
MEAN_MOTION    = 15.49271194
ECCENTRICITY   = .00077647
INCLINATION    = 51.6331
RA_OF_ASC_NODE = 345.7221
ARG_OF_PERICENTER = 13.3330
MEAN_ANOMALY   = 346.7863

EPHEMERIS_TYPE = 0
CLASSIFICATION_TYPE = U
NORAD_CAT_ID   = 65616
ELEMENT_SET_NO = 999
REV_AT_EPOCH   = 22
BSTAR          = .14620922E-3
MEAN_MOTION_DOT = .7693E-4
MEAN_MOTION_DDOT = 0

CCSDS_OMM_VERS = 2.0
CREATION_DATE  = 
ORIGINATOR     = 

OBJECT_NAME    = DRAGONFLY
OBJECT_ID      = 1998-067XH
CENTER_NAME    = EARTH
REF_FRAME      = TEME
TIME_SYSTEM    = UTC
MEAN_ELEMENT_THEORY = SGP/SGP4

EPOCH          = 2026-01-13T21:21:36.950400
MEAN_MOTION    = 15.88646761
ECCENTRICITY   = .00080588
INCLINATION    = 51.6211
RA_OF_ASC_NODE = 329.4000
ARG_OF_PERICENTER = 105.8186
MEAN_ANOMALY   = 254.3708

EPHEMERIS_TYPE = 0
CLASSIFICATION_TYPE = U
NORAD_CAT_ID   = 65729
ELEMENT_SET_NO = 999
REV_AT_EPOCH   = 1824
BSTAR          = .96055622E-3
MEAN_MOTION_DOT = .284701E-2
MEAN_MOTION_DDOT = 0

CCSDS_OMM_VERS = 2.0
CREATION_DATE  = 
ORIGINATOR     = 

OBJECT_NAME    = 1998-067XK
OBJECT_ID      = 1998-067XK
CENTER_NAME    = EARTH
REF_FRAME      = TEME
TIME_SYSTEM    = UTC
MEAN_ELEMENT_THEORY = SGP/SGP4

EPOCH          = 2026-01-13T03:06:31.767840
MEAN_MOTION    = 15.73432001
ECCENTRICITY   = .00049147
INCLINATION    = 51.6285
RA_OF_ASC_NODE = 337.1409
ARG_OF_PERICENTER = 72.1641
MEAN_ANOMALY   = 287.9894

EPHEMERIS_TYPE = 0
CLASSIFICATION_TYPE = U
NORAD_CAT_ID   = 65731
ELEMENT_SET_NO = 999
REV_AT_EPOCH   = 1807
BSTAR          = .76195208E-3
MEAN_MOTION_DOT = .109037E-2
MEAN_MOTION_DDOT = 0

CCSDS_OMM_VERS = 2.0
CREATION_DATE  = 
ORIGINATOR     = 

OBJECT_NAME    = RSP-03
OBJECT_ID      = 1998-067XL
CENTER_NAME    = EARTH
REF_FRAME      = TEME
TIME_SYSTEM    = UTC
MEAN_ELEMENT_THEORY = SGP/SGP4

EPOCH          = 2026-01-13T19:26:13.600896
MEAN_MOTION    = 15.79790344
ECCENTRICITY   = .00058694
INCLINATION    = 51.6261
RA_OF_ASC_NODE = 331.9045
ARG_OF_PERICENTER = 85.6790
MEAN_ANOMALY   = 274.4882

EPHEMERIS_TYPE = 0
CLASSIFICATION_TYPE = U
NORAD_CAT_ID   = 65732
ELEMENT_SET_NO = 999
REV_AT_EPOCH   = 1821
BSTAR          = .92535931E-3
MEAN_MOTION_DOT = .177193E-2
MEAN_MOTION_DDOT = 0

CCSDS_OMM_VERS = 2.0
CREATION_DATE  = 
ORIGINATOR     = 

OBJECT_NAME    = GHS-01
OBJECT_ID      = 1998-067XM
CENTER_NAME    = EARTH
REF_FRAME      = TEME
TIME_SYSTEM    = UTC
MEAN_ELEMENT_THEORY = SGP/SGP4

EPOCH          = 2026-01-13T20:23:49.884288
MEAN_MOTION    = 16.01379575
ECCENTRICITY   = .00077468
INCLINATION    = 51.6222
RA_OF_ASC_NODE = 327.6205
ARG_OF_PERICENTER = 120.6014
MEAN_ANOMALY   = 239.5761

EPHEMERIS_TYPE = 0
CLASSIFICATION_TYPE = U
NORAD_CAT_ID   = 65733
ELEMENT_SET_NO = 999
REV_AT_EPOCH   = 1827
BSTAR          = .13576944E-2
MEAN_MOTION_DOT = .771569E-2
MEAN_MOTION_DDOT = .29140756E-3

CCSDS_OMM_VERS = 2.0
CREATION_DATE  = 
ORIGINATOR     = 

OBJECT_NAME    = YOTSUBA-KULOVER
OBJECT_ID      = 1998-067XN
CENTER_NAME    = EARTH
REF_FRAME      = TEME
TIME_SYSTEM    = UTC
MEAN_ELEMENT_THEORY = SGP/SGP4

EPOCH          = 2026-01-13T19:56:56.793696
MEAN_MOTION    = 15.64724410
ECCENTRICITY   = .000403
INCLINATION    = 51.6291
RA_OF_ASC_NODE = 338.0882
ARG_OF_PERICENTER = 99.3963
MEAN_ANOMALY   = 260.7488

EPHEMERIS_TYPE = 0
CLASSIFICATION_TYPE = U
NORAD_CAT_ID   = 65941
ELEMENT_SET_NO = 999
REV_AT_EPOCH   = 1487
BSTAR          = .58202338E-3
MEAN_MOTION_DOT = .5755E-3
MEAN_MOTION_DDOT = 0

CCSDS_OMM_VERS = 2.0
CREATION_DATE  = 
ORIGINATOR     = 

OBJECT_NAME    = BOTAN
OBJECT_ID      = 1998-067XP
CENTER_NAME    = EARTH
REF_FRAME      = TEME
TIME_SYSTEM    = UTC
MEAN_ELEMENT_THEORY = SGP/SGP4

EPOCH          = 2026-01-13T14:37:11.324640
MEAN_MOTION    = 15.71481007
ECCENTRICITY   = .00048164
INCLINATION    = 51.6262
RA_OF_ASC_NODE = 337.3441
ARG_OF_PERICENTER = 97.0128
MEAN_ANOMALY   = 263.1418

EPHEMERIS_TYPE = 0
CLASSIFICATION_TYPE = U
NORAD_CAT_ID   = 65942
ELEMENT_SET_NO = 999
REV_AT_EPOCH   = 1486
BSTAR          = .88977014E-3
MEAN_MOTION_DOT = .11737E-2
MEAN_MOTION_DDOT = 0

CCSDS_OMM_VERS = 2.0
CREATION_DATE  = 
ORIGINATOR     = 

OBJECT_NAME    = E-KAGAKU-1
OBJECT_ID      = 1998-067XQ
CENTER_NAME    = EARTH
REF_FRAME      = TEME
TIME_SYSTEM    = UTC
MEAN_ELEMENT_THEORY = SGP/SGP4

EPOCH          = 2026-01-13T07:41:02.706144
MEAN_MOTION    = 15.64652925
ECCENTRICITY   = .00026164
INCLINATION    = 51.6310
RA_OF_ASC_NODE = 340.6811
ARG_OF_PERICENTER = 97.8936
MEAN_ANOMALY   = 262.2356

EPHEMERIS_TYPE = 0
CLASSIFICATION_TYPE = U
NORAD_CAT_ID   = 65943
ELEMENT_SET_NO = 999
REV_AT_EPOCH   = 1479
BSTAR          = .64996932E-3
MEAN_MOTION_DOT = .64189E-3
MEAN_MOTION_DDOT = 0

CCSDS_OMM_VERS = 2.0
CREATION_DATE  = 
ORIGINATOR     = 

OBJECT_NAME    = HRC MONOBLOCK CAMERA
OBJECT_ID      = 1998-067XR
CENTER_NAME    = EARTH
REF_FRAME      = TEME
TIME_SYSTEM    = UTC
MEAN_ELEMENT_THEORY = SGP/SGP4

EPOCH          = 2026-01-13T07:51:59.230368
MEAN_MOTION    = 15.56581518
ECCENTRICITY   = .00011219
INCLINATION    = 51.6305
RA_OF_ASC_NODE = 343.7264
ARG_OF_PERICENTER = 356.2255
MEAN_ANOMALY   = 3.8728

EPHEMERIS_TYPE = 0
CLASSIFICATION_TYPE = U
NORAD_CAT_ID   = 66052
ELEMENT_SET_NO = 999
REV_AT_EPOCH   = 1375
BSTAR          = .46734125E-3
MEAN_MOTION_DOT = .33511E-3
MEAN_MOTION_DDOT = 0

CCSDS_OMM_VERS = 2.0
CREATION_DATE  = 
ORIGINATOR     = 

OBJECT_NAME    = HTV-X1
OBJECT_ID      = 2025-241A
CENTER_NAME    = EARTH
REF_FRAME      = TEME
TIME_SYSTEM    = UTC
MEAN_ELEMENT_THEORY = SGP/SGP4

EPOCH          = 2026-01-13T09:39:35.179200
MEAN_MOTION    = 15.49271194
ECCENTRICITY   = .00077647
INCLINATION    = 51.6331
RA_OF_ASC_NODE = 345.7221
ARG_OF_PERICENTER = 13.3330
MEAN_ANOMALY   = 346.7863

EPHEMERIS_TYPE = 0
CLASSIFICATION_TYPE = U
NORAD_CAT_ID   = 66174
ELEMENT_SET_NO = 999
REV_AT_EPOCH   = 51
BSTAR          = .14620922E-3
MEAN_MOTION_DOT = .7693E-4
MEAN_MOTION_DDOT = 0

CCSDS_OMM_VERS = 2.0
CREATION_DATE  = 
ORIGINATOR     = 

OBJECT_NAME    = SZ-21 MODULE
OBJECT_ID      = 2025-246C
CENTER_NAME    = EARTH
REF_FRAME      = TEME
TIME_SYSTEM    = UTC
MEAN_ELEMENT_THEORY = SGP/SGP4

EPOCH          = 2026-01-13T17:37:06.898368
MEAN_MOTION    = 15.64448838
ECCENTRICITY   = .00018354
INCLINATION    = 41.4739
RA_OF_ASC_NODE = 180.5961
ARG_OF_PERICENTER = 161.6783
MEAN_ANOMALY   = 198.4124

EPHEMERIS_TYPE = 0
CLASSIFICATION_TYPE = U
NORAD_CAT_ID   = 66515
ELEMENT_SET_NO = 999
REV_AT_EPOCH   = 945
BSTAR          = .22944515E-3
MEAN_MOTION_DOT = .22409E-3
MEAN_MOTION_DDOT = 0

CCSDS_OMM_VERS = 2.0
CREATION_DATE  = 
ORIGINATOR     = 

OBJECT_NAME    = SHENZHOU-22
OBJECT_ID      = 2025-272A
CENTER_NAME    = EARTH
REF_FRAME      = TEME
TIME_SYSTEM    = UTC
MEAN_ELEMENT_THEORY = SGP/SGP4

EPOCH          = 2026-01-13T20:31:44.098464
MEAN_MOTION    = 15.60488360
ECCENTRICITY   = .00114824
INCLINATION    = 41.4652
RA_OF_ASC_NODE = 181.5345
ARG_OF_PERICENTER = 279.6301
MEAN_ANOMALY   = 80.3240

EPHEMERIS_TYPE = 0
CLASSIFICATION_TYPE = U
NORAD_CAT_ID   = 66645
ELEMENT_SET_NO = 999
REV_AT_EPOCH   = 26764
BSTAR          = .16429638E-3
MEAN_MOTION_DOT = .13646E-3
MEAN_MOTION_DDOT = 0

